#cP2012 11 10  0  0  0.00000000     288 u+U   IGb08 FIT  TUM
## 1713 518400.00000000   300.00000000 56241 0.0000000000000
+    3   J01E11E12  0  0  0  0  0  0  0  0  0  0  0  0  0  0
+          0  0  0  0  0  0  0  0  0  0  0  0  0  0  0  0  0
+          0  0  0  0  0  0  0  0  0  0  0  0  0  0  0  0  0
+          0  0  0  0  0  0  0  0  0  0  0  0  0  0  0  0  0
+          0  0  0  0  0  0  0  0  0  0  0  0  0  0  0  0  0
++         4  0  0  0  0  0  0  0  0  0  0  0  0  0  0  0  0
++         0  0  0  0  0  0  0  0  0  0  0  0  0  0  0  0  0
++         0  0  0  0  0  0  0  0  0  0  0  0  0  0  0  0  0
++         0  0  0  0  0  0  0  0  0  0  0  0  0  0  0  0  0
++         0  0  0  0  0  0  0  0  0  0  0  0  0  0  0  0  0
%c E  cc GPS ccc cccc cccc cccc cccc ccccc ccccc ccccc ccccc
%c cc cc ccc ccc cccc cccc cccc cccc ccccc ccccc ccccc ccccc
%f  1.2500000  1.025000000  0.00000000000  0.000000000000000
%f  0.0000000  0.000000000  0.00000000000  0.000000000000000
%i    0    0    0    0      0      0      0      0         0
%i    0    0    0    0      0      0      0      0         0
/* Galileo+QZSS orbits for MGEX based on CONGO+MGEX data    
/* Technische Universitaet Muenchen (TUM)                   
/* Further information: www.iapg.bv.tum.de/mgex             
/* PCV:IGS08_1645 OL/AL:FES2004  NONE     YN ORB:CoN CLK:CoN
*  2012 11 10 23 20  0.00000000
PJ01 -33092.367897  25603.690092   -680.562743    351.208065
PE11 -16864.660743   2704.882943  24169.565668    309.767043
PE12 -16419.655358 -16752.418351  18051.297967    480.634412
*  2012 11 10 23 25  0.00000000
PJ01 -33020.123637  25818.484198    -77.675867    351.208232
PE11 -17018.066436   1994.380388  24131.125974    309.882695
PE12 -16540.266156 -17272.630462  17440.560335    480.659923
*  2012 11 10 23 30  0.00000000
PJ01 -32938.276357  26029.685428    525.248851    351.208408
PE11 -17187.045180   1289.126544  24059.296197    309.998419
PE12 -16668.214030 -17771.775021  16805.695470    480.685429
*  2012 11 10 23 35  0.00000000
PJ01 -32847.071150  26236.939910   1127.918940    351.208493
PE11 -17371.185729    590.432242  23954.175836    310.114073
PE12 -16802.444640 -18249.102135  16147.581402    480.710954
*  2012 11 10 23 40  0.00000000
PJ01 -32746.767423  26439.905400   1730.044933    351.208647
PE11 -17570.006310   -100.417166  23815.910453    310.229755
PE12 -16941.866605 -18703.928590  15467.128351    480.736459
*  2012 11 10 23 45  0.00000000
PJ01 -32637.638278  26638.251835   2331.340487    351.208817
PE11 -17782.956272   -782.166027  23644.691472    310.345389
PE12 -17085.355462 -19135.640008  14765.277460    480.761960
*  2012 11 10 23 50  0.00000000
PJ01 -32519.969889  26831.661842   2931.522468    351.208952
PE11 -18009.417966  -1453.592491  23440.755916    310.461062
PE12 -17231.757726 -19543.692762  14042.999503    480.787491
*  2012 11 10 23 55  0.00000000
PJ01 -32394.060838  27019.831235   3530.311053    351.209076
PE11 -18248.708878  -2113.512510  23204.386075    310.576753
PE12 -17379.895081 -19927.615654  13301.293532    480.813046
EOF
